[{"OBJECT_NAME":"RESOURCESAT-2","OBJECT_ID":"2011-015A","EPOCH":"2026-03-09T22:09:34.808256","MEAN_MOTION":14.21500709,"ECCENTRICITY":0.00064275,"INCLINATION":98.7721,"RA_OF_ASC_NODE":137.0095,"ARG_OF_PERICENTER":138.2632,"MEAN_ANOMALY":221.9036,"EPHEMERIS_TYPE":0,"CLASSIFICATION_TYPE":"U","NORAD_CAT_ID":37387,"ELEMENT_SET_NO":999,"REV_AT_EPOCH":77207,"BSTAR":-7.3226423e-5,"MEAN_MOTION_DOT":-2.05e-6,"MEAN_MOTION_DDOT":0},{"OBJECT_NAME":"FENGYUN 1C DEB","OBJECT_ID":"1999-025ANX","EPOCH":"2026-03-09T17:03:12.301920","MEAN_MOTION":14.15156412,"ECCENTRICITY":0.00812178,"INCLINATION":99.0458,"RA_OF_ASC_NODE":146.1643,"ARG_OF_PERICENTER":212.5711,"MEAN_ANOMALY":278.7947,"EPHEMERIS_TYPE":0,"CLASSIFICATION_TYPE":"U","NORAD_CAT_ID":30640,"ELEMENT_SET_NO":999,"REV_AT_EPOCH":97675,"BSTAR":0.001512639,"MEAN_MOTION_DOT":2.986e-5,"MEAN_MOTION_DDOT":0}]
